[
  {
    "name": "Wakkanai",
    "lat": 45.4158108,
    "lon": 141.6730309,
    "name_ja": "稚内市"
  },
  {
    "name": "Sapporo",
    "lat": 43.061936,
    "lon": 141.3542924,
    "name_ja": "札幌市"
  },
  {
    "name": "Sendai",
    "lat": 38.2677554,
    "lon": 140.8691498,
    "name_ja": "仙台市"
  },
  {
    "name": "Niigata",
    "lat": 37.9160769,
    "lon": 139.0365006,
    "name_ja": "新潟市"
  },
  {
    "name": "Tokyo",
    "lat": 35.6768601,
    "lon": 139.7638947,
    "name_ja": "東京都"
  },
  {
    "name": "Kanazawa",
    "lat": 36.561627,
    "lon": 136.6568822,
    "name_ja": "金沢市"
  },
  {
    "name": "Nagano",
    "lat": 36.6485851,
    "lon": 138.1947664,
    "name_ja": "長野市"
  },
  {
    "name": "Osaka",
    "lat": 34.6937569,
    "lon": 135.5014539,
    "name_ja": "大阪市"
  },
  {
    "name": "Fukuyama",
    "lat": 34.4857039,
    "lon": 133.3623097,
    "name_ja": "福山市"
  },
  {
    "name": "Kochi",
    "lat": 33.5680384,
    "lon": 133.5394221,
    "name_ja": "高知市"
  },
  {
    "name": "Fukuoka",
    "lat": 33.5898988,
    "lon": 130.4017509,
    "name_ja": "福岡市"
  },
  {
    "name": "Kagoshima",
    "lat": 31.5841689,
    "lon": 130.543387,
    "name_ja": "鹿児島市"
  },
  {
    "name": "Naha",
    "lat": 26.2122345,
    "lon": 127.6791452,
    "name_ja": "那覇市"
  }
]